76P/West-Kohoutek-Ikemura,e,30.4852,84.1089,359.9460,3.469394,0.1525189,0.53919242,231.9467,12/26.0/2023,2000,g  8.0,12.0
# From MPEC 2023-TM6
77P/Longmore,e,24.3184,14.7650,196.6968,3.622642,0.1429440,0.35171090,38.1658,12/26.0/2023,2000,g  7.0,8.0
# From MPEC 2021-O56
78P/Gehrels,e,6.2570,210.5319,192.6745,3.735821,0.1364976,0.46315892,235.5283,12/26.0/2023,2000,g  5.5,8.0
# From MPC 94675
79P/du Toit-Hartley,e,3.1488,281.7710,280.5310,2.944079,0.1951102,0.61922712,16.9053,12/26.0/2023,2000,g 16.0,4.0
# From MPEC 2023-RF3
80P/Peters-Hartley,e,29.9230,259.7893,339.2607,4.022735,0.1221580,0.59833268,46.6869,12/26.0/2023,2000,g  9.0,8.0
# From MPEC 2023-W26
81P/Wild,e,3.2367,136.0942,41.5984,3.453147,0.1535965,0.53724706,57.6632,12/26.0/2023,2000,g  7.0,6.0
# From MPC133426
82P/Gehrels,e,1.1291,239.2402,226.4046,4.132438,0.1173261,0.12236886,236.0873,12/26.0/2023,2000,g 15.0,4.0
# From NK 932
83D/Russell,e,17.8253,226.3089,334.4391,3.843959,0.1307784,0.44145480,123.8904,12/26.0/2023,2000,g  9.0,4.0
# From MPEC 2020-FB5
84P/Giclas,e,7.5510,108.1672,281.6359,3.550052,0.1473506,0.51607069,191.4360,12/26.0/2023,2000,g  9.5,8.0
# From unp
85D/Boethin,e,4.1742,65.2843,333.0641,5.043650,0.0870135,0.77633303,108.2234,12/26.0/2023,2000,g  6.5,8.0
# From MPEC 2022-YB4
86P/Wild,e,15.4992,72.1690,180.2293,3.616892,0.1432850,0.37164055,98.1774,12/26.0/2023,2000,g 11.0,6.0
# From MPEC 2020-SI8
87P/Bus,e,2.7794,187.5150,50.2139,4.243154,0.1127641,0.25038261,148.9393,12/26.0/2023,2000,g  7.2,10.0
# From MPEC 2023-J29
88P/Howell,e,4.3819,56.6654,235.9265,3.106995,0.1799671,0.56328563,213.5221,12/26.0/2023,2000,g 11.0,6.0
# From MPEC 2023-J29
89P/Russell,e,12.0722,41.3463,250.4009,3.752152,0.1356074,0.40784972,347.5775,12/26.0/2023,2000,g 11.5,6.0
# From MPEC 2022-K19
90P/Gehrels,e,9.6495,13.2181,29.0964,6.051761,0.0662036,0.51115631,157.3537,12/26.0/2023,2000,g  8.5,6.0
# From MPEC 2023-VM5
91P/Russell,e,15.3628,243.8546,358.5907,3.901831,0.1278797,0.33403891,146.0286,12/26.0/2023,2000,g  7.5,6.0
# From MPEC 2014-J58
92P/Sanguin,e,19.4973,181.3784,163.8024,5.342775,0.0798093,0.66063066,256.5109,12/26.0/2023,2000,g 12.0,6.0
# From NK 2707
93P/Lovas,e,12.2044,339.5914,74.9263,4.377710,0.1076053,0.61395850,267.5884,12/26.0/2023,2000,g  9.0,4.0
# From MPEC 2023_O39
94P/Russell,e,6.1878,70.8520,92.4086,3.510552,0.1498445,0.36564068,32.8084,12/26.0/2023,2000,g  9.0,6.0
# From MPC 75717
95P/Chiron,e,6.9223,209.1996,339.4301,13.71149,0.0194123,0.37661143,199.0454,12/26.0/2023,2000,g  6.5,2.0
# From MPEC 2023-N01
96P/Machholz,e,57.5330,93.9537,14.7438,3.030752,0.1868007,0.96161194,61.4395,12/26.0/2023,2000,g 13.0,4.8
# From MPC106348
96P-B/Machholz,e,57.5052,14.7305,93.9493,3.030188,0.1868529,0.96161381,61.4569,12/26.0/2023,2000,g 13.0,4.8
# From MPC103849
96P-C/Machholz,e,58.5311,94.3495,15.5380,3.011920,0.1885553,0.95889850,359.8715,07/14.0/2012,2000,g  9.0,4.0
# From MPEC 2022-C56
97P/Metcalf-Brewington,e,17.9494,184.1185,230.0393,4.765522,0.0947411,0.46031054,64.2417,12/26.0/2023,2000,g  5.5,6.0
# From MPEC 2021-W31
98P/Takamizawa,e,10.5679,114.6469,157.7437,3.790697,0.1335444,0.56247488,145.0113,12/26.0/2023,2000,g  9.0,8.0
# From MPEC 2023-VM5
99P/Kowal,e,4.3395,28.0967,174.7031,6.097875,0.0654540,0.22853877,40.8795,12/26.0/2023,2000,g  4.5,6.0
# From MPEC 2023-OA6
100P/Hartley,e,25.5671,37.6861,181.9621,3.430552,0.1551165,0.41175061,77.8937,12/26.0/2023,2000,g  9.0,8.0
# From MPEC 2022-K19
101P/Chernykh,e,5.0496,116.2436,277.7875,5.812550,0.0703322,0.59631783,101.4568,12/26.0/2023,2000,g 10.0,4.8
# From MPC105241
101P-B/Chernykh,e,5.0499,278.5617,115.4719,5.828032,0.0700521,0.59652920,99.8072,12/26.0/2023,2000,g  9.0,4.0
# From MPEC 2022-C56
102P/Shoemaker,e,25.8743,339.4116,20.6553,3.818089,0.1321098,0.45674003,141.0231,12/26.0/2023,2000,g  6.5,8.0
# From MPEC 2023-Y70
103P/Hartley,e,13.6107,219.7496,181.2998,3.474761,0.1521656,0.69376731,11.3348,12/26.0/2023,2000,g  8.5,8.0
# From MPEC 2023-G31
104P/Kowal,e,5.7033,207.2087,227.2533,3.208631,0.1714843,0.66583517,122.2923,12/26.0/2023,2000,g 16.0,4.0
# From MPC109147
105P/Singer Brewster,e,9.1678,192.3656,46.4053,3.471027,0.1524113,0.40887072,299.9687,12/26.0/2023,2000,g 11.5,6.0
# From MPEC 2023-UR6
106P/Schuster,e,19.5406,48.8619,353.7604,3.766740,0.1348204,0.59394553,115.8062,12/26.0/2023,2000,g 14.0,4.8
# From MPEC 2015-M77
107P/Wilson-Harrington,e,2.7987,266.7571,95.4843,2.625091,0.2317327,0.63148505,113.1745,12/26.0/2023,2000,g  9.0,4.0
# From MPEC 2022-P82
108P/Ciffreo,e,11.4363,50.2974,354.4909,3.742208,0.1361483,0.55610296,113.9057,12/26.0/2023,2000,g  8.0,12.0
# From  105, 420
109P/Swift-Tuttle,e,113.5353,139.3904,153.1911,26.21120,0.0073447,0.96254540,83.2158,12/26.0/2023,2000,g  4.0,6.0
# From MPEC 2023-KD6
110P/Hartley,e,11.7066,287.4964,167.4904,3.603919,0.1440594,0.31894441,115.0125,12/26.0/2023,2000,g  1.0,12.0
# From MPC 75718
111P/Helin-Roman-Crockett,e,4.2258,89.8152,1.1644,4.151926,0.1165010,0.10708267,107.3522,12/26.0/2023,2000,g  5.0,8.0
# From MPEC 2021-S45
112P/Urata-Niijima,e,24.2109,31.8360,21.4907,3.523786,0.1490012,0.59081157,210.9141,12/26.0/2023,2000,g 14.0,6.0
# From MPEC 2023-VM5
113P/Spitaler,e,5.2880,306.6635,115.6118,3.693843,0.1388310,0.41995441,79.4570,12/26.0/2023,2000,g 13.5,4.0
# From MPEC 2023-A50
114P/Wiseman-Skiff,e,18.2988,271.0232,172.7594,3.541908,0.1478591,0.55584488,213.0331,12/26.0/2023,2000,g 11.5,6.0
# From MPEC 2023-J29
115P/Maury,e,11.6770,176.0132,120.9807,4.272236,0.1116147,0.51760499,139.0255,12/26.0/2023,2000,g 10.5,6.0
# From MPEC 2023-VM5
116P/Wild,e,3.6034,20.9734,173.2167,3.487921,0.1513053,0.37031463,79.7853,12/26.0/2023,2000,g  2.5,10.0
# From MPEC 2023-Y70
117P/Helin-Roman-Alu,e,8.7052,58.8161,223.3723,4.090869,0.1191189,0.25604903,63.6502,12/26.0/2023,2000,g  2.5,8.0
# From MPEC 2023-XP6
118P/Shoemaker-Levy,e,10.0904,142.0891,314.8730,3.347980,0.1608903,0.45367643,63.8048,12/26.0/2023,2000,g 12.0,4.0
# From MPEC 2023-Y70
119P/Parker-Hartley,e,7.3924,104.5617,322.1541,3.806898,0.1326928,0.38837523,66.4460,12/26.0/2023,2000,g  3.5,8.0
# From MPEC 2022-CN4
120P/Mueller,e,8.4877,358.7243,36.6950,3.967513,0.1247172,0.37477896,120.0047,12/26.0/2023,2000,g 12.0,4.0
# From MPEC 2023-Y70
121P/Shoemaker-Holt,e,20.1633,94.1131,11.7171,4.585258,0.1003826,0.18643412,18.0563,12/26.0/2023,2000,g  6.5,8.0
# From MPC 75718
122P/de Vico,e,85.8857,79.7165,12.9910,17.62701,0.0133179,0.96243297,137.5446,12/26.0/2023,2000,g  7.5,5.2
# From MPEC 2021-F20
123P/West-Hartley,e,15.2794,45.9051,104.0318,3.881258,0.1288977,0.44427985,230.8709,12/26.0/2023,2000,g 12.2,4.0
# From MPEC 2023-T65
124P/Mrkos,e,31.4711,0.0836,185.1995,3.372227,0.1591582,0.48706173,215.0440,12/26.0/2023,2000,g 13.5,2.8
# From MPEC 2023-XP6
125P/Spacewatch,e,9.9849,153.1516,87.1409,3.129278,0.1780483,0.51212872,347.1275,12/26.0/2023,2000,g 13.0,6.0
# From MPEC 2023-Y70
126P/IRAS,e,45.8710,357.8659,356.5860,5.635917,0.0736643,0.69651251,12.7953,12/26.0/2023,2000,g  6.0,8.0
# From MPEC 2023-D41
127P/Holt-Olmstead,e,14.3009,13.6065,6.2971,3.452591,0.1536337,0.35934073,77.2136,12/26.0/2023,2000,g 11.0,6.0
# From MPC 89014
128P/Shoemaker-Holt,e,4.3704,214.3417,210.3361,4.485950,0.1037343,0.32231535,263.1852,12/26.0/2023,2000,g  8.5,4.0
# From MPEC 2023-M14
129P/Shoemaker-Levy,e,3.4424,184.8609,307.5086,4.291115,0.1108789,0.08547239,43.2888,12/26.0/2023,2000,g 11.0,4.0
# From MPEC 2023-M14
130P/McNaught-Hughes,e,6.0636,70.1786,246.1239,3.381625,0.1584951,0.46091209,342.4271,12/26.0/2023,2000,g 10.0,6.0
# From MPC102101
131P/Mueller,e,7.3607,214.1784,179.1042,3.677332,0.1397670,0.34491293,250.6669,12/26.0/2023,2000,g 11.0,4.0
# From MPEC 2022-TD3
132P/Helin-Roman-Alu,e,5.3820,174.0326,216.4054,3.890062,0.1284604,0.56463437,99.2674,12/26.0/2023,2000,g 11.0,6.0
# From MPC 94676
133P/Elst-Pizarro,e,1.3897,160.1024,131.9169,3.164762,0.1750623,0.15611340,336.1341,12/26.0/2023,2000,g 15.4,2.0
# From MPC 89012
134P/Kowal-Vavrova,e,4.3349,202.0121,18.7935,6.266783,0.0628257,0.58505019,221.1678,12/26.0/2023,2000,g 11.5,4.0
# From MPEC 2022-OB6
135P/Shoemaker-Levy,e,6.0638,213.0200,22.3817,3.800216,0.1330429,0.29434646,83.5027,12/26.0/2023,2000,g  7.0,8.0
# From MPEC 2022-K19
136P/Mueller,e,9.4275,137.4975,225.1399,4.186762,0.1150500,0.29330780,316.9528,12/26.0/2023,2000,g 11.0,4.0
# From MPEC 2023-J29
137P/Shoemaker-Levy,e,4.8601,232.9277,141.2097,4.522163,0.1024908,0.57366391,188.2374,12/26.0/2023,2000,g 11.0,4.0
# From MPEC 2016-U66
138P/Shoemaker-Levy,e,10.0951,309.2976,95.6113,3.619175,0.1431494,0.53160387,242.7423,12/26.0/2023,2000,g 15.0,6.0
# From MPEC 2020-HN5
139P/Vaisala-Oterma,e,2.3372,242.1795,165.8217,4.516533,0.1026825,0.24829142,226.1221,12/26.0/2023,2000,g  9.5,4.0
# From MPEC 2015-E14
140P/Bowell-Skiff,e,3.8054,343.3046,172.4355,6.405984,0.0607890,0.69595327,186.8179,12/26.0/2023,2000,g 11.5,6.0
# From MPEC 2022-K19
141P/Machholz,e,13.9545,241.8111,153.5983,3.057562,0.1843492,0.73610002,203.5320,12/26.0/2023,2000,g 12.0,12.0
# From MPEC 2015-KD9
141P-A/Machholz,e,13.9443,153.5610,241.8622,3.057697,0.1843369,0.73609516,203.4859,12/26.0/2023,2000,g 12.0,12.0
# From MPC 24216
141P-B/Machholz,e,13.9882,153.6367,241.7515,3.056089,0.1844825,0.73585288,204.8336,12/26.0/2023,2000,g  9.0,4.0
# From MPC 37026
141P-D/Machholz,e,13.8363,153.2881,242.1098,3.066144,0.1835758,0.73705078,199.5016,12/26.0/2023,2000,g  9.0,4.0
# From MPEC 2015-R12
141P-E/Machholz,e,12.8152,246.1856,149.2667,3.012914,0.1884620,0.75023267,359.9529,09/19.0/1994,2000,g  9.0,4.0
# From MPEC 2015-R12
141P-F/Machholz,e,12.7898,246.1881,149.2374,3.010224,0.1887147,0.75000946,359.9630,09/19.0/1994,2000,g  9.0,4.0
# From MPEC 2015-R12
141P-G/Machholz,e,12.8259,246.3146,149.0784,3.005818,0.1891298,0.74964304,359.9802,09/19.0/1994,2000,g  9.0,4.0
# From MPC 95735
141P-H/Machholz,e,12.8431,246.0900,149.4500,3.008012,0.1889230,0.74682218,359.9270,08/24.0/2015,2000,g 18.5,4.0
# From MPEC 2022-SU8
141P-I/Machholz,e,13.9442,153.5153,241.8725,3.048180,0.1852009,0.73532038,204.5526,12/26.0/2023,2000,g 17.5,4.0
